[{"OBJECT_NAME":"UTMN 2 (RS27S)","OBJECT_ID":"2023-091AP","EPOCH":"2026-03-09T23:09:07.917408","MEAN_MOTION":15.29495965,"ECCENTRICITY":0.00097379,"INCLINATION":97.5194,"RA_OF_ASC_NODE":134.949,"ARG_OF_PERICENTER":76.0788,"MEAN_ANOMALY":284.1534,"EPHEMERIS_TYPE":0,"CLASSIFICATION_TYPE":"U","NORAD_CAT_ID":57203,"ELEMENT_SET_NO":999,"REV_AT_EPOCH":14936,"BSTAR":0.00056135701,"MEAN_MOTION_DOT":0.00016013,"MEAN_MOTION_DDOT":0},{"OBJECT_NAME":"STARLINK-34800","OBJECT_ID":"2025-190L","EPOCH":"2026-03-09T13:58:47.808192","MEAN_MOTION":15.3019755,"ECCENTRICITY":0.0001004,"INCLINATION":53.1584,"RA_OF_ASC_NODE":168.3357,"ARG_OF_PERICENTER":95.1229,"MEAN_ANOMALY":264.9886,"EPHEMERIS_TYPE":0,"CLASSIFICATION_TYPE":"U","NORAD_CAT_ID":65361,"ELEMENT_SET_NO":999,"REV_AT_EPOCH":2927,"BSTAR":0.0010317,"MEAN_MOTION_DOT":0.00030318,"MEAN_MOTION_DDOT":0}]
